{
  "type": "FeatureCollection",
  "features": [
    {
      "type": "Feature",
      "properties": {
        "norad_id": 58647,
        "name": "TIANMU-1 13",
        "group": "weather",
        "lat": 80.1399492337063,
        "lon": -28.129884795342498,
        "alt_km": 486.923603069672,
        "timestamp": "2025-12-26T12:57:38.909602+00:00",
        "meta_object_name": "TIANMU-1 13",
        "meta_object_id": "2023-205C",
        "meta_epoch": "2025-12-26T07:52:13.950336",
        "meta_mean_motion": 15.2469322,
        "meta_eccentricity": 0.00067638,
        "meta_inclination": 97.3615,
        "meta_ra_of_asc_node": 19.7203,
        "meta_arg_of_pericenter": 208.3107,
        "meta_mean_anomaly": 151.7764,
        "meta_ephemeris_type": 0,
        "meta_classification_type": "U",
        "meta_norad_cat_id": 58647,
        "meta_element_set_no": 999,
        "meta_rev_at_epoch": 11114,
        "meta_bstar": 0.00027356404,
        "meta_mean_motion_dot": 6.698e-05,
        "meta_mean_motion_ddot": 0,
        "tle_line1": "1 58647U 23205C   25360.32793924  .00006698  00000+0  27356-3 0  9991",
        "tle_line2": "2 58647  97.3615  19.7203 0006763 208.3107 151.7764 15.24693220111141"
      },
      "geometry": {
        "type": "Point",
        "coordinates": [
          -28.129884795342498,
          80.1399492337063
        ]
      }
    },
    {
      "type": "Feature",
      "properties": {
        "norad_id": 58648,
        "name": "TIANMU-1 14",
        "group": "weather",
        "lat": 6.169056972003877,
        "lon": -159.93532531735318,
        "alt_km": 490.0810922252049,
        "timestamp": "2025-12-26T12:57:38.909618+00:00",
        "meta_object_name": "TIANMU-1 14",
        "meta_object_id": "2023-205D",
        "meta_epoch": "2025-12-26T05:54:02.246976",
        "meta_mean_motion": 15.24674683,
        "meta_eccentricity": 0.00074546,
        "meta_inclination": 97.3547,
        "meta_ra_of_asc_node": 18.9759,
        "meta_arg_of_pericenter": 214.6531,
        "meta_mean_anomaly": 145.4222,
        "meta_ephemeris_type": 0,
        "meta_classification_type": "U",
        "meta_norad_cat_id": 58648,
        "meta_element_set_no": 999,
        "meta_rev_at_epoch": 11113,
        "meta_bstar": 0.00025263224,
        "meta_mean_motion_dot": 6.177e-05,
        "meta_mean_motion_ddot": 0,
        "tle_line1": "1 58648U 23205D   25360.24585934  .00006177  00000+0  25263-3 0  9990",
        "tle_line2": "2 58648  97.3547  18.9759 0007454 214.6531 145.4222 15.24674683111132"
      },
      "geometry": {
        "type": "Point",
        "coordinates": [
          -159.93532531735318,
          6.169056972003877
        ]
      }
    },
    {
      "type": "Feature",
      "properties": {
        "norad_id": 58660,
        "name": "TIANMU-1 19",
        "group": "weather",
        "lat": -55.805445811432406,
        "lon": -79.53466883164909,
        "alt_km": 486.07313582817187,
        "timestamp": "2025-12-26T12:57:38.909634+00:00",
        "meta_object_name": "TIANMU-1 19",
        "meta_object_id": "2023-208A",
        "meta_epoch": "2025-12-26T07:12:51.956640",
        "meta_mean_motion": 15.28097626,
        "meta_eccentricity": 0.00048766,
        "meta_inclination": 97.4385,
        "meta_ra_of_asc_node": 111.3127,
        "meta_arg_of_pericenter": 195.8962,
        "meta_mean_anomaly": 164.2126,
        "meta_ephemeris_type": 0,
        "meta_classification_type": "U",
        "meta_norad_cat_id": 58660,
        "meta_element_set_no": 999,
        "meta_rev_at_epoch": 11089,
        "meta_bstar": 0.00035312461,
        "meta_mean_motion_dot": 9.605e-05,
        "meta_mean_motion_ddot": 0,
        "tle_line1": "1 58660U 23208A   25360.30060135  .00009605  00000+0  35312-3 0  9990",
        "tle_line2": "2 58660  97.4385 111.3127 0004876 195.8962 164.2126 15.28097626110891"
      },
      "geometry": {
        "type": "Point",
        "coordinates": [
          -79.53466883164909,
          -55.805445811432406
        ]
      }
    },
    {
      "type": "Feature",
      "properties": {
        "norad_id": 58661,
        "name": "TIANMU-1 20",
        "group": "weather",
        "lat": 9.520128595734802,
        "lon": 110.75839741955585,
        "alt_km": 484.161564753359,
        "timestamp": "2025-12-26T12:57:38.909650+00:00",
        "meta_object_name": "TIANMU-1 20",
        "meta_object_id": "2023-208B",
        "meta_epoch": "2025-12-26T06:38:14.696736",
        "meta_mean_motion": 15.29286757,
        "meta_eccentricity": 0.0006903,
        "meta_inclination": 97.4324,
        "meta_ra_of_asc_node": 111.7496,
        "meta_arg_of_pericenter": 210.3441,
        "meta_mean_anomaly": 149.7401,
        "meta_ephemeris_type": 0,
        "meta_classification_type": "U",
        "meta_norad_cat_id": 58661,
        "meta_element_set_no": 999,
        "meta_rev_at_epoch": 11096,
        "meta_bstar": 0.00035021159,
        "meta_mean_motion_dot": 9.883e-05,
        "meta_mean_motion_ddot": 0,
        "tle_line1": "1 58661U 23208B   25360.27655899  .00009883  00000+0  35021-3 0  9999",
        "tle_line2": "2 58661  97.4324 111.7496 0006903 210.3441 149.7401 15.29286757110964"
      },
      "geometry": {
        "type": "Point",
        "coordinates": [
          110.75839741955585,
          9.520128595734802
        ]
      }
    },
    {
      "type": "Feature",
      "properties": {
        "norad_id": 58662,
        "name": "TIANMU-1 21",
        "group": "weather",
        "lat": 39.541362894863305,
        "lon": -59.82547492367984,
        "alt_km": 465.36204105164325,
        "timestamp": "2025-12-26T12:57:38.909666+00:00",
        "meta_object_name": "TIANMU-1 21",
        "meta_object_id": "2023-208C",
        "meta_epoch": "2025-12-26T06:04:49.390752",
        "meta_mean_motion": 15.31841416,
        "meta_eccentricity": 0.00065189,
        "meta_inclination": 97.4373,
        "meta_ra_of_asc_node": 113.6958,
        "meta_arg_of_pericenter": 204.7114,
        "meta_mean_anomaly": 155.3816,
        "meta_ephemeris_type": 0,
        "meta_classification_type": "U",
        "meta_norad_cat_id": 58662,
        "meta_element_set_no": 999,
        "meta_rev_at_epoch": 11106,
        "meta_bstar": 0.00038160714,
        "meta_mean_motion_dot": 0.00011666,
        "meta_mean_motion_ddot": 0,
        "tle_line1": "1 58662U 23208C   25360.25334943  .00011666  00000+0  38161-3 0  9992",
        "tle_line2": "2 58662  97.4373 113.6958 0006518 204.7114 155.3816 15.31841416111066"
      },
      "geometry": {
        "type": "Point",
        "coordinates": [
          -59.82547492367984,
          39.541362894863305
        ]
      }
    },
    {
      "type": "Feature",
      "properties": {
        "norad_id": 58663,
        "name": "TIANMU-1 22",
        "group": "weather",
        "lat": -44.61510105282213,
        "lon": -75.80157325632835,
        "alt_km": 486.9736177950226,
        "timestamp": "2025-12-26T12:57:38.909682+00:00",
        "meta_object_name": "TIANMU-1 22",
        "meta_object_id": "2023-208D",
        "meta_epoch": "2025-12-26T07:15:47.755584",
        "meta_mean_motion": 15.27833341,
        "meta_eccentricity": 0.00030542,
        "meta_inclination": 97.4379,
        "meta_ra_of_asc_node": 111.3675,
        "meta_arg_of_pericenter": 218.6452,
        "meta_mean_anomaly": 141.4569,
        "meta_ephemeris_type": 0,
        "meta_classification_type": "U",
        "meta_norad_cat_id": 58663,
        "meta_element_set_no": 999,
        "meta_rev_at_epoch": 11090,
        "meta_bstar": 0.00033057499,
        "meta_mean_motion_dot": 8.913e-05,
        "meta_mean_motion_ddot": 0,
        "tle_line1": "1 58663U 23208D   25360.30263606  .00008913  00000+0  33057-3 0  9996",
        "tle_line2": "2 58663  97.4379 111.3675 0003054 218.6452 141.4569 15.27833341110901"
      },
      "geometry": {
        "type": "Point",
        "coordinates": [
          -75.80157325632835,
          -44.61510105282213
        ]
      }
    },
    {
      "type": "Feature",
      "properties": {
        "norad_id": 58700,
        "name": "TIANMU-1 15",
        "group": "weather",
        "lat": -14.845935699287038,
        "lon": -0.03347976283461797,
        "alt_km": 493.449687536081,
        "timestamp": "2025-12-26T12:57:38.909699+00:00",
        "meta_object_name": "TIANMU-1 15",
        "meta_object_id": "2024-004A",
        "meta_epoch": "2025-12-26T07:22:57.795168",
        "meta_mean_motion": 15.24587491,
        "meta_eccentricity": 0.00061113,
        "meta_inclination": 97.4631,
        "meta_ra_of_asc_node": 181.7263,
        "meta_arg_of_pericenter": 232.4078,
        "meta_mean_anomaly": 127.6605,
        "meta_ephemeris_type": 0,
        "meta_classification_type": "U",
        "meta_norad_cat_id": 58700,
        "meta_element_set_no": 999,
        "meta_rev_at_epoch": 10941,
        "meta_bstar": 0.00030293399,
        "meta_mean_motion_dot": 7.399e-05,
        "meta_mean_motion_ddot": 0,
        "tle_line1": "1 58700U 24004A   25360.30761337  .00007399  00000+0  30293-3 0  9993",
        "tle_line2": "2 58700  97.4631 181.7263 0006111 232.4078 127.6605 15.24587491109413"
      },
      "geometry": {
        "type": "Point",
        "coordinates": [
          -0.03347976283461797,
          -14.845935699287038
        ]
      }
    }
  ]
}